TDRS 3                  
1 19548U 88091B   26171.13964924 -.00000309  00000+0  00000+0 0  9999
2 19548  12.5992 340.9866 0038307 356.3937 292.4317  1.00272409125416
FLTSATCOM 8 (USA 46)    
1 20253U 89077A   26170.91781681 -.00000377  00000+0  00000+0 0  9996
2 20253  12.4208 351.1474 0004248  57.3236 315.8142  1.00276084260594
SKYNET 4C               
1 20776U 90079A   26162.20198485  .00000132  00000+0  00000+0 0  9995
2 20776  13.3424 349.8525 0002400  96.2313 279.5534  1.00274127130831
TDRS 5                  
1 21639U 91054B   26171.21595410  .00000073  00000+0  00000+0 0  9992
2 21639  14.0707 353.7598 0006218 275.1925 269.5642  1.00275880127746
TDRS 6                  
1 22314U 93003B   26171.04410444 -.00000307  00000+0  00000+0 0  9994
2 22314  14.1828 357.0374 0008209 178.4700  62.8072  1.00270344122431
UFO 2 (USA 95)          
1 22787U 93056A   26171.18380369  .00000114  00000+0  00000+0 0  9998
2 22787  11.8958   3.5382 0004971   9.3128 350.3609  1.00270176118577
USA 99 (MILSTAR-1 1)    
1 22988U 94009A   26170.85322422 -.00000236  00000+0  00000+0 0  9995
2 22988  17.6313  27.6798 0000849 225.3426 312.3366  0.98724155 32972
UFO 4 (USA 108)         
1 23467U 95003A   26170.85568841 -.00000033  00000+0  00000+0 0  9995
2 23467   9.6900  13.2199 0003084  71.3788 303.7014  1.00272604114985
TDRS 7                  
1 23613U 95035B   26170.98181670 -.00000250  00000+0  00000+0 0  9999
2 23613  13.3760 348.1707 0011579  83.0115 279.2998  1.00280526113283
USA 115 (MILSTAR-1 2)   
1 23712U 95060A   26170.98054642 -.00000208  00000+0  00000+0 0  9998
2 23712  14.0740   3.7310 0001581 135.4093  28.7585  1.00364403 32918
INMARSAT 3-F1           
1 23839U 96020A   26171.23030740 -.00000108  00000+0  00000+0 0  9996
2 23839  10.6069  46.6064 0003787  56.4316 149.9351  0.99978301110285
INMARSAT 3-F2           
1 24307U 96053A   26170.61010590 -.00000285  00000+0  00000+0 0  9991
2 24307   9.8621  53.9119 0006625  32.2079 188.3813  1.00002513108940
INMARSAT 3-F3           
1 24674U 96070A   26170.82945198  .00000127  00000+0  00000+0 0  9995
2 24674  10.3236  49.6281 0003272  29.1261 167.6670  0.99983665107933
AMC-3                   
1 24936U 97050A   26171.27412747  .00000033  00000+0  00000+0 0  9990
2 24936   8.1729  63.9535 0004266  28.7526 130.6706  0.99063223 52466
USA 134                 
1 25019U 97065A   26171.15580713 -.00000073  00000+0  00000+0 0  9990
2 25019  12.7881  21.7036 0003384 339.6249 210.8058  1.00268986 32985
INMARSAT 3-F5           
1 25153U 98006B   26171.09611556 -.00000300  00000+0  00000+0 0  9991
2 25153   9.7004  53.2332 0004223  31.4135 164.2527  1.00274648103928
ABS-6                   
1 25924U 99053A   26171.20962741  .00000000  00000+0  00000+0 0  9994
2 25924   0.0230  30.3191 0003809  77.4389  35.1481  1.00269052 97872
UFO 10 (USA 146)        
1 25967U 99063A   26170.91641745 -.00000198  00000+0  00000+0 0  9996
2 25967   9.8820  27.1853 0001741  50.9227 136.9919  1.00270396 97374
ASIASTAR                
1 26107U 00016A   26170.62860089 -.00000342  00000+0  00000+0 0  9996
2 26107   9.1362  58.1299 0004595  30.2265 150.7520  1.00267815 95941
USA 149 (DSP 20)        
1 26356U 00024A   26171.18782242  .00000084  00000+0  00000+0 0  9999
2 26356  13.1731  11.8345 0001966 315.8167 203.0148  1.00276399 32948
TDRS 8                  
1 26388U 00034A   26170.62452755 -.00000206  00000+0  00000+0 0  9993
2 26388  12.6858  31.2997 0005140  29.9330 156.0649  1.00277176 95204
NSS-11                  
1 26554U 00059A   26171.21300742  .00000019  00000+0  00000+0 0  9990
2 26554   2.1354  81.3573 0002904 358.5631  81.1822  1.00272272 41327
USA 153                 
1 26575U 00065A   26170.79469751 -.00000335  00000+0  00000+0 0  9990
2 26575  11.6293  35.4010 0002993  47.0413 246.1317  1.00269130 32959
AMC-6                   
1 26580U 00067A   26171.26365241  .00000084  00000+0  00000+0 0  9990
2 26580   0.1611  83.1746 0003574  14.1581 131.0173  1.00270083 93920
USA 157 (MILSTAR-2 2)   
1 26715U 01009A   26171.28392405  .00000099  00000+0  00000+0 0  9997
2 26715  11.5465  19.7494 0039238 177.4649  23.4765  1.00276510 32972
INTELSAT 902 (IS-902)   
1 26900U 01039A   26171.16820361 -.00000290  00000+0  00000+0 0  9994
2 26900   6.1243  71.7474 0004280  14.2873 192.7993  1.00270935 90729
USA 164 (MILSTAR-2 3)   
1 27168U 02001A   26171.25318352  .00000087  00000+0  00000+0 0  9996
2 27168  11.1840  21.8926 0099678   8.2747 348.4440  1.00267381 32983
INTELSAT 904 (IS-904)   
1 27380U 02007A   26170.10252515 -.00000234  00000+0  00000+0 0  9994
2 27380   6.9257  69.1626 0006550   6.6050 196.9688  1.00270224 51780
DIRECTV 5 (TEMPO 1)     
1 27426U 02023A   26171.22764216 -.00000063  00000+0  00000+0 0  9993
2 27426   4.8866  75.2740 0003228  15.9063 149.0979  1.00271966 88152
INTELSAT 905 (IS-905)   
1 27438U 02027A   26171.26588116  .00000087  00000+0  00000+0 0  9992
2 27438   6.7622  69.7648 0003972  23.6141 133.6003  1.00272868 51395
GALAXY 3C (G-3C)        
1 27445U 02030A   26171.23030740 -.00000158  00000+0  00000+0 0  9996
2 27445   3.7409  77.9381 0001681  28.7359 149.8293  1.00271501 46522
