OBJECT_NAME,OBJECT_ID,EPOCH,MEAN_MOTION,ECCENTRICITY,INCLINATION,RA_OF_ASC_NODE,ARG_OF_PERICENTER,MEAN_ANOMALY,EPHEMERIS_TYPE,CLASSIFICATION_TYPE,NORAD_CAT_ID,ELEMENT_SET_NO,REV_AT_EPOCH,BSTAR,MEAN_MOTION_DOT,MEAN_MOTION_DDOT
TDRS 3,1988-091B,2026-06-20T03:21:05.694336,1.00272409,.00383073,12.5992,340.9866,356.3937,292.4317,0,U,19548,999,12541,0,-.309E-5,0
FLTSATCOM 8 (USA 46),1989-077A,2026-06-19T22:01:39.372384,1.00276084,.00042489,12.4208,351.1474,57.3236,315.8142,0,U,20253,999,26059,0,-.377E-5,0
SKYNET 4C,1990-079A,2026-06-11T04:50:51.491040,1.00274127,.00024,13.3424,349.8525,96.2313,279.5534,0,U,20776,999,13083,0,.132E-5,0
TDRS 5,1991-054B,2026-06-20T05:10:58.434240,1.00275880,.00062185,14.0707,353.7598,275.1925,269.5642,0,U,21639,999,12774,0,.73E-6,0
TDRS 6,1993-003B,2026-06-20T01:03:30.623616,1.00270344,.00082095,14.1828,357.0374,178.4700,62.8072,0,U,22314,999,12243,0,-.307E-5,0
UFO 2 (USA 95),1993-056A,2026-06-20T04:24:40.638816,1.00270176,.0004971,11.8958,3.5382,9.3128,350.3609,0,U,22787,999,11857,0,.114E-5,0
USA 99 (MILSTAR-1 1),1994-009A,2026-06-19T20:28:38.572608,0.98724155,.00008495,17.6313,27.6798,225.3426,312.3366,0,U,22988,999,3297,0,-.236E-5,0
UFO 4 (USA 108),1995-003A,2026-06-19T20:32:11.478624,1.00272604,.00030845,9.6900,13.2199,71.3788,303.7014,0,U,23467,999,11498,0,-.33E-6,0
TDRS 7,1995-035B,2026-06-19T23:33:48.962880,1.00280526,.00115795,13.3760,348.1707,83.0115,279.2998,0,U,23613,999,11328,0,-.25E-5,0
USA 115 (MILSTAR-1 2),1995-060A,2026-06-19T23:31:59.210688,1.00364403,.00015812,14.0740,3.7310,135.4093,28.7585,0,U,23712,999,3291,0,-.208E-5,0
INMARSAT 3-F1,1996-020A,2026-06-20T05:31:38.559360,0.99978301,.00037874,10.6069,46.6064,56.4316,149.9351,0,U,23839,999,11028,0,-.108E-5,0
INMARSAT 3-F2,1996-053A,2026-06-19T14:38:33.149760,1.00002513,.00066253,9.8621,53.9119,32.2079,188.3813,0,U,24307,999,10894,0,-.285E-5,0
INMARSAT 3-F3,1996-070A,2026-06-19T19:54:24.651072,0.99983665,.00032728,10.3236,49.6281,29.1261,167.6670,0,U,24674,999,10793,0,.127E-5,0
AMC-3,1997-050A,2026-06-20T06:34:44.613408,0.99063223,.00042667,8.1729,63.9535,28.7526,130.6706,0,U,24936,999,5246,0,.33E-6,0
USA 134,1997-065A,2026-06-20T03:44:21.736032,1.00268986,.00033846,12.7881,21.7036,339.6249,210.8058,0,U,25019,999,3298,0,-.73E-6,0
INMARSAT 3-F5,1998-006B,2026-06-20T02:18:24.384384,1.00274648,.0004223,9.7004,53.2332,31.4135,164.2527,0,U,25153,999,10392,0,-.3E-5,0
ABS-6,1999-053A,2026-06-20T05:01:51.808224,1.00269052,.00038096,0.0230,30.3191,77.4389,35.1481,0,U,25924,999,9787,0,0,0
UFO 10 (USA 146),1999-063A,2026-06-19T21:59:38.467680,1.00270396,.00017412,9.8820,27.1853,50.9227,136.9919,0,U,25967,999,9737,0,-.198E-5,0
ASIASTAR,2000-016A,2026-06-19T15:05:11.116896,1.00267815,.00045953,9.1362,58.1299,30.2265,150.7520,0,U,26107,999,9594,0,-.342E-5,0
USA 149 (DSP 20),2000-024A,2026-06-20T04:30:27.857088,1.00276399,.00019663,13.1731,11.8345,315.8167,203.0148,0,U,26356,999,3294,0,.84E-6,0
TDRS 8,2000-034A,2026-06-19T14:59:19.180320,1.00277176,.00051407,12.6858,31.2997,29.9330,156.0649,0,U,26388,999,9520,0,-.206E-5,0
NSS-11,2000-059A,2026-06-20T05:06:43.841088,1.00272272,.00029047,2.1354,81.3573,358.5631,81.1822,0,U,26554,999,4132,0,.19E-6,0
USA 153,2000-065A,2026-06-19T19:04:21.864864,1.00269130,.00029936,11.6293,35.4010,47.0413,246.1317,0,U,26575,999,3295,0,-.335E-5,0
AMC-6,2000-067A,2026-06-20T06:19:39.568224,1.00270083,.0003574,0.1611,83.1746,14.1581,131.0173,0,U,26580,999,9392,0,.84E-6,0
USA 157 (MILSTAR-2 2),2001-009A,2026-06-20T06:48:51.037920,1.00276510,.00392386,11.5465,19.7494,177.4649,23.4765,0,U,26715,999,3297,0,.99E-6,0
INTELSAT 902 (IS-902),2001-039A,2026-06-20T04:02:12.791904,1.00270935,.00042805,6.1243,71.7474,14.2873,192.7993,0,U,26900,999,9072,0,-.29E-5,0
USA 164 (MILSTAR-2 3),2002-001A,2026-06-20T06:04:35.056128,1.00267381,.00996783,11.1840,21.8926,8.2747,348.4440,0,U,27168,999,3298,0,.87E-6,0
INTELSAT 904 (IS-904),2002-007A,2026-06-19T02:27:38.172960,1.00270224,.00065508,6.9257,69.1626,6.6050,196.9688,0,U,27380,999,5178,0,-.234E-5,0
DIRECTV 5 (TEMPO 1),2002-023A,2026-06-20T05:27:48.282624,1.00271966,.00032282,4.8866,75.2740,15.9063,149.0979,0,U,27426,999,8815,0,-.63E-6,0
INTELSAT 905 (IS-905),2002-027A,2026-06-20T06:22:52.132224,1.00272868,.0003972,6.7622,69.7648,23.6141,133.6003,0,U,27438,999,5139,0,.87E-6,0
GALAXY 3C (G-3C),2002-030A,2026-06-20T05:31:38.559360,1.00271501,.00016814,3.7409,77.9381,28.7359,149.8293,0,U,27445,999,4652,0,-.158E-5,0
